[{"OBJECT_NAME":"STARLINK-32515","OBJECT_ID":"2024-195U","EPOCH":"2026-03-09T12:49:52.666176","MEAN_MOTION":15.30171928,"ECCENTRICITY":0.00013219,"INCLINATION":53.1606,"RA_OF_ASC_NODE":156.3738,"ARG_OF_PERICENTER":84.4033,"MEAN_ANOMALY":275.7118,"EPHEMERIS_TYPE":0,"CLASSIFICATION_TYPE":"U","NORAD_CAT_ID":61705,"ELEMENT_SET_NO":999,"REV_AT_EPOCH":7715,"BSTAR":-1.5743747e-5,"MEAN_MOTION_DOT":-8.25e-6,"MEAN_MOTION_DDOT":0},{"OBJECT_NAME":"KUIPER-00180","OBJECT_ID":"2026-030E","EPOCH":"2026-03-09T22:29:40.634304","MEAN_MOTION":15.31865817,"ECCENTRICITY":0.00157227,"INCLINATION":51.8823,"RA_OF_ASC_NODE":218.464,"ARG_OF_PERICENTER":75.5448,"MEAN_ANOMALY":284.728,"EPHEMERIS_TYPE":0,"CLASSIFICATION_TYPE":"U","NORAD_CAT_ID":67768,"ELEMENT_SET_NO":999,"REV_AT_EPOCH":512,"BSTAR":0.011360708,"MEAN_MOTION_DOT":0.00373574,"MEAN_MOTION_DDOT":0}]
